IRIDIUM 106             
1 41917U 17003A   24126.82775896  .00000434  00000+0  14798-3 0  9992
2 41917  86.3992  51.2870 0001961  81.1317 279.0101 14.34216502382508
IRIDIUM 103             
1 41918U 17003B   24126.81507587  .00000429  00000+0  14629-3 0  9999
2 41918  86.3993  51.1942 0002519  77.3662 282.7815 14.34218368382526
IRIDIUM 109             
1 41919U 17003C   24126.82141819  .00000338  00000+0  11377-3 0  9999
2 41919  86.3995  51.2383 0002537  87.3867 272.7620 14.34218535382492
IRIDIUM 114             
1 41923U 17003G   24126.87849560  .00000345  00000+0  11610-3 0  9995
2 41923  86.3993  51.1713 0002026  87.0020 273.1407 14.34220234382578
IRIDIUM 108             
1 41924U 17003H   24126.76725058  .00000239  00000+0  78291-4 0  9990
2 41924  86.4009  19.5665 0002110  82.3889 277.7547 14.34216962384397
